0159P         2018 05 22.2759  3.617098  0.382045    4.5614   54.9644   23.4717  20220129  10.0  4.0  159P/LONEOS                                              MPEC 2021-N06
0160P         2019 12  2.5208  1.788452  0.526295   12.7372  333.3596   15.6166  20220129  15.5  2.0  160P/LINEAR                                              MPEC 2021-J28
0161P         2026 11 28.6550  1.273874  0.835034   46.9789    1.5708   95.7967  20220129   8.5  6.0  161P/Hartley-IRAS                                        MPC 75721
0162P         2020 12  7.8718  1.289138  0.583029  357.1611   30.8978   27.5571  20220129  12.0  4.0  162P/SidingSpring                                        MPEC 2022-A21
0163P         2019 08  5.0630  2.063804  0.452057  349.5804  102.0782   12.7104  20220129  14.5  4.0  163P/NEAT                                                MPEC 2021-S45
0164P         2025 05 27.9265  1.680180  0.540413  325.8392   88.2788   16.2605  20220129  11.0  4.0  164P/Christensen                                         MPEC 2021-F20
0165P         2000 05 14.3167  6.870483  0.615400  125.9179    0.8619   15.8948  20220129  11.5  2.0  165P/LINEAR                                              MPC 75721
0166P         2002 05 23.0363  8.509832  0.384062  321.5115   64.4063   15.3749  20220129   5.5  4.0  166P/NEAT                                                MPC 75722
0167P         2001 05 11.2672 11.826902  0.271302  344.6583  295.6847   19.1151  20220129   9.5  2.0  167P/CINEOS                                              MPC 75722
0168P         2019 08  5.5757  1.357458  0.621076   15.0067  355.4517   21.6239  20220129  15.5  4.0  168P/Hergenrother                                        MPC102101
0169P         2022 07  9.6881  0.602790  0.768282  218.0499  176.1079   11.2989  20220129  16.0  2.0  169P/NEAT                                                MPEC 2021-N06
0170P         2023 04 21.0454  2.923166  0.303995  225.6160  142.9219   10.1252  20220129  12.0  4.0  170P/Christensen                                         MPEC 2021-O56
0171P         2019 01 13.2289  1.771198  0.501736  347.0593  101.6910   21.9377  20220129  13.5  4.0  171P/Spahr                                               MPC102102
0172P         2025 11  4.6936  3.350388  0.205042  209.3810   30.8847   11.2266  20220129  13.0  4.0  172P/Yeung                                               MPEC 2021-WD8
0173P         2021 12 16.6643  4.217056  0.261068   29.1749  100.3992   16.4922  20220129   7.5  4.0  173P/Mueller                                             MPEC 2022-A21
0174P         2015 04 26.0575  5.821594  0.457386  163.2150  173.2017    4.3436  20220129   9.4  2.0  174P/Echeclus                                            MPC 92985
0175P         2019 10 14.3274  2.001511  0.430703   62.1876  121.0283    5.6410  20220129  14.0  4.0  175P/Hergenrother                                        MPC114608
0176P         2022 11 22.5614  2.578977  0.193200   34.6738  346.0095    0.2344  20220129  15.1  2.0  176P/LINEAR                                              MPC 89015
0177P         2006 09  4.6992  1.092560  0.955315   60.3642  272.1319   31.2209  20220129  15.0  4.0  177P/Barnard                                             MPEC 2020-L06
0178P         2020 07 16.7414  1.880837  0.482209  297.8050  102.8636   11.0877  20220129  14.6  4.0  178P/Hug-Bell                                            MPEC 2021-F20
0179P         2022 05 30.0949  4.117802  0.305916  296.8889  115.5152   19.8980  20220129   2.5  8.0  179P/Jedicke                                             MPEC 2022-A21
0180P         2023 07 12.5037  2.500128  0.353050   94.7440   84.5717   16.8637  20220129  11.0  4.0  180P/NEAT                                                MPC100284
0181P         2022 01  8.7501  1.159837  0.700597  336.2321   35.4034   17.4860  20220129  11.5  4.0  181P/Shoemaker-Levy                                      MPC 89012
0182P         2022 05 12.2429  0.993775  0.663201   54.2329   72.4600   16.2266  20220129  18.0  4.0  182P/LONEOS                                              MPEC 2014-J10
0183P         2017 11 30.3578  3.982630  0.129024  168.0102    4.1027   18.9462  20220129  12.5  2.0  183P/Korlevic-Juric                                      MPEC 2021-S45
0184P         2020 10 26.2711  1.703894  0.551050  186.4929  173.2453    4.5734  20220129  13.5  4.0  184P/Lovas                                               MPEC 2020-W26
0185P         2023 07 12.9848  0.931121  0.699489  181.8770  214.1055   14.0115  20220129  15.0  4.0  185P/Petriew                                             MPC109593
0186P         2019 01 23.8312  4.284399  0.122426  272.0438  326.5868   28.7996  20220129   7.5  4.0  186P/Garradd                                             MPEC 2021-W31
0187P         2018 05 13.5118  3.873250  0.152050  131.6585  109.9111   13.6343  20220129   9.0  4.0  187P/LINEAR                                              MPEC 2020-SI8
0188P         2026 04 12.8589  2.552467  0.416289   26.5747  358.9658   10.5259  20220129  11.5  4.0  188P/LINEAR-Mueller                                      MPC106349
0189P         2022 08 28.8341  1.211620  0.588709   16.3153  281.7204   20.0683  20220129  19.0  4.0  189P/NEAT                                                MPC106349
0190P         2024 12 24.1936  2.024104  0.521800   50.3107  335.5693    2.1742  20220129  13.0  4.0  190P/Mueller                                             MPEC 2020-K19
0191P         2021 03 20.2231  2.232487  0.385934  284.0462   98.2329    8.8421  20220129  13.0  4.0  191P/McNaught                                            MPEC 2022-A21
0192P         2024 05 24.3525  1.466948  0.773392  313.0031   51.6131   24.5718  20220129  15.0  4.0  192P/Shoemaker-Levy                                      MPC 75724
0193P         2021 08 25.1998  2.167962  0.393917    8.0800  335.1742   10.6885  20220129  14.0  4.0  193P/LINEAR-NEAT                                         MPEC 2022-A21
0194P         2024 01 29.8936  1.717944  0.577300  130.3726  349.5996   11.9935  20220129  16.0  4.0  194P/LINEAR                                              MPC 98566
0195P         2025 07 27.4205  4.464800  0.313687  249.2562  243.1260   36.3317  20220129   8.5  4.0  195P/Hill                                                MPEC 2021-S45
0196P         2022 10 29.5981  2.174267  0.428658   12.1358   24.1323   19.2936  20220129  13.5  4.0  196P/Tichy                                               MPC 92985
0197P         2022 12  7.7134  1.062778  0.629435  188.7485   66.3718   25.5290  20220129  16.5  2.0  197P/LINEAR                                              MPC 94676
0198P         2018 12 14.0171  2.001374  0.443723   69.1781  358.2483    1.3387  20220129   9.0  4.0  198P/ODAS                                                NK   1596
0199P         2023 08  8.0940  2.910733  0.505840  191.7171   92.3658   24.9319  20220129  10.0  4.0  199P/Shoemaker                                           MPC 75725
0200P         2019 07 29.5631  3.298753  0.332679  134.1737  234.7730   12.0987  20220129   9.0  4.0  200P/Larsen                                              MPEC 2021-F20
0201P         2021 05 26.6876  1.217316  0.637108   41.5485   19.7460    5.7392  20220129  14.0  4.0  201P/LONEOS                                              MPC 93588
0202P         2024 05 23.1331  3.011683  0.262117  276.7521  177.5684    2.1058  20220129  13.5  4.0  202P/Scotti                                              MPEC 2021-N06
0203P         2020 03  4.6752  3.197821  0.315317  154.7876  290.3290    2.9727  20220129  14.5  2.0  203P/Korlevic                                            MPEC 2021-S45
0204P         2022 11 16.7235  1.835027  0.488012  356.5632  108.5187    6.5961  20220129  14.0  4.0  204P/LINEAR-NEAT                                         MPC 98566
0205P         2022 01 13.7161  1.530109  0.568220  154.1928  179.6020   15.3057  20220129  13.0  4.0  205P/Giacobini                                           MPEC 2021-W31
0206P         2021 03  4.5361  1.564920  0.551438  189.4970  202.3392   33.6342  20220129  19.0  4.0  206P/Barnard-Boattini                                    MPC 75725
0207P         2024 01 31.8196  0.934198  0.758840  273.0508  198.2451   10.1929  20220129  16.0  4.0  207P/NEAT                                                MPC 75725
0208P         2024 08 23.3683  2.531456  0.374047  310.5053   36.3407    4.4117  20220129  12.5  4.0  208P/McMillan                                            MPEC 2020-W26
0209P         2024 07 15.2962  0.967770  0.673042  152.4500   62.7738   21.2557  20220129  17.0  2.0  209P/LINEAR                                              MPC 90771
0210P         2020 04  7.9091  0.527310  0.833326  345.8937   93.8217   10.2657  20220129  13.5  4.0  210P/Christensen                                         MPC105242
0211P         2022 10  4.6075  2.327682  0.343567    4.2777  117.1316   18.9213  20220129  12.5  4.0  211P/Hill                                                MPEC 2021-WD8
0212P         2024 04 25.2338  1.605280  0.587570   14.0760   98.2069   22.1929  20220129  17.0  2.0  212P/NEAT                                                MPEC 2021-F20
0213P         2023 11 11.2594  1.980743  0.408244    5.6793  311.2944   10.3813  20220129  10.5  4.0  213P/Van Ness                                            MPC114608
0214P         2022 09 26.2652  1.860824  0.485848  190.2042  348.2494   15.1834  20220129  13.0  4.0  214P/LINEAR                                              MPC 92986
0215P         2019 11 19.2307  3.607715  0.166630  262.2713   56.6853   10.5795  20220129  11.0  4.0  215P/NEAT                                                MPEC 2022-A21
0216P         2024 01  6.8276  2.135129  0.447655  151.4178  359.8122    9.0646  20220129  13.0  4.0  216P/LINEAR                                              MPC100284
